GPS BIIR-2  (PRN 13)    
1 24876U 97035A   20186.39089844  .00000051  00000-0  00000+0 0  9998
2 24876  55.4592 183.4923 0039941  59.0254 301.3728  2.00564948168153
GPS BIIR-3  (PRN 11)    
1 25933U 99055A   20186.24269821 -.00000093  00000-0  00000+0 0  9993
2 25933  52.3141  29.2828 0158406 115.1319  79.2951  2.00558123151967
GPS BIIR-4  (PRN 20)    
1 26360U 00025A   20185.66507686 -.00000059  00000-0  00000-0 0  9999
2 26360  53.5391 108.4972 0051652 155.5023  19.6607  2.00565308147657
GPS BIIR-5  (PRN 28)    
1 26407U 00040A   20186.55347961 -.00000062  00000-0  00000+0 0  9998
2 26407  55.9823 301.4985 0186129 279.3637 139.6498  2.00564821146343
GPS BIIR-6  (PRN 14)    
1 26605U 00071A   20186.34459639  .00000048  00000-0  00000+0 0  9998
2 26605  55.0351 180.7871 0117560 250.8912 293.2944  2.00564586143938
GPS BIIR-8  (PRN 16)    
1 27663U 03005A   20186.07971047 -.00000064  00000-0  00000-0 0  9995
2 27663  56.0383 301.3045 0113244  35.5127 163.4001  2.00550713127700
GPS BIIR-9  (PRN 21)    
1 27704U 03010A   20185.90270782 -.00000080  00000-0  00000-0 0  9994
2 27704  54.6363  52.3260 0240485 284.5471  86.0607  2.00395568126500
GPS BIIR-10 (PRN 22)    
1 28129U 03058A   20186.08239565 -.00000056  00000-0  00000-0 0  9995
2 28129  53.3498 111.1918 0071849 294.7621  64.4721  2.00548912121186
GPS BIIR-11 (PRN 19)    
1 28190U 04009A   20186.59219530 -.00000095  00000-0  00000-0 0  9999
2 28190  56.2724   2.0828 0092108  95.1201 270.2560  2.00562013119390
GPS BIIR-13 (PRN 02)    
1 28474U 04045A   20186.44982543 -.00000079  00000-0  00000+0 0  9990
2 28474  54.9815  52.1889 0199333 267.2865 272.9000  2.00557187114827
GPS BIIRM-1 (PRN 17)    
1 28874U 05038A   20186.30524684 -.00000094  00000-0  00000-0 0  9998
2 28874  56.3743 359.4829 0134485 266.0078 272.5506  2.00558500108239
GPS BIIRM-2 (PRN 31)    
1 29486U 06042A   20183.17413583  .00000052  00000-0  00000-0 0  9994
2 29486  54.8575 237.8311 0094947   6.3645 353.5656  2.00571611100756
GPS BIIRM-3 (PRN 12)    
1 29601U 06052A   20185.61580790 -.00000064  00000-0  00000+0 0  9993
2 29601  56.0260 300.2426 0077947  66.0453 294.7748  2.00564637 99848
GPS BIIRM-4 (PRN 15)    
1 32260U 07047A   20186.41747456  .00000028  00000-0  00000-0 0  9996
2 32260  53.1928 170.0874 0122272  50.2443 310.8045  2.00558858 93255
GPS BIIRM-5 (PRN 29)    
1 32384U 07062A   20184.73695079 -.00000086  00000-0  00000+0 0  9990
2 32384  56.4708   0.2213 0013739 119.1995 239.8364  2.00577035 91934
GPS BIIRM-6 (PRN 07)    
1 32711U 08012A   20186.33760675  .00000054  00000-0  00000+0 0  9997
2 32711  54.6038 236.8040 0142094 224.1269 134.8187  2.00565351 90155
GPS BIIRM-8 (PRN 05)    
1 35752U 09043A   20186.42936622 -.00000051  00000-0  00000-0 0  9996
2 35752  54.6019 114.3505 0058188  45.2504  53.4999  2.00561355 79763
GPS BIIF-1  (PRN 25)    
1 36585U 10022A   20186.14910429 -.00000056  00000-0  00000+0 0  9990
2 36585  55.2991 296.2449 0089289  53.0154 308.4216  2.00552280 73985
GPS BIIF-2  (PRN 01)    
1 37753U 11036A   20185.28295854 -.00000076  00000-0  00000-0 0  9999
2 37753  56.1858  56.6506 0098406  44.8077 137.4540  2.00559995 65655
GPS BIIF-3  (PRN 24)    
1 38833U 12053A   20186.51812160  .00000054  00000-0  00000-0 0  9996
2 38833  53.6462 232.6264 0095965  37.1327 323.6151  2.00566099 55957
GPS BIIF-4  (PRN 27)    
1 39166U 13023A   20185.37903544 -.00000092  00000-0  00000+0 0  9996
2 39166  56.0368 356.1604 0081958  31.6471 328.8526  2.00564804 52250
GPS BIIF-5  (PRN 30)    
1 39533U 14008A   20185.88002472  .00000053  00000-0  00000-0 0  9991
2 39533  53.7617 238.0893 0048043 200.1390 159.7585  2.00568742 46094
GPS BIIF-6  (PRN 06)    
1 39741U 14026A   20186.15883719 -.00000075  00000-0  00000+0 0  9998
2 39741  56.1607  56.1436 0020292 296.2181  63.6356  2.00576211 44911
GPS BIIF-7  (PRN 09)    
1 40105U 14045A   20186.24863779  .00000041  00000-0  00000-0 0  9992
2 40105  54.5939 175.2784 0013107 104.8023 255.3331  2.00559976 42507
GPS BIIF-8  (PRN 03)    
1 40294U 14068A   20186.11349347 -.00000049  00000-0  00000-0 0  9991
2 40294  55.3518 116.2196 0028723  40.9511 319.2366  2.00549495 41605
GPS BIIF-9  (PRN 26)    
1 40534U 15013A   20186.25375448 -.00000053  00000-0  00000-0 0  9990
2 40534  54.2141 294.1784 0047164   9.9654 350.1467  2.00567116 38224
GPS BIIF-10 (PRN 08)    
1 40730U 15033A   20185.91517325 -.00000096  00000-0  00000-0 0  9991
2 40730  55.5529 355.3033 0053756 354.1446   5.7985  2.00562211 36408
GPS BIIF-11 (PRN 10)    
1 41019U 15062A   20184.47039249 -.00000045  00000-0  00000-0 0  9992
2 41019  55.3480 116.1120 0057874 210.9050 148.7263  2.00564240 34193
GPS BIIF-12 (PRN 32)    
1 41328U 16007A   20185.56099046  .00000052  00000-0  00000-0 0  9994
2 41328  54.8290 175.7962 0042240 223.0605 136.6042  2.00556663 32274
GPS BIII-1  (PRN 04)    
1 43873U 18109A   20186.49311182  .00000042  00000-0  00000-0 0  9996
2 43873  55.0098 178.0307 0009159 221.6552 344.7385  2.00564631 11516
GPS BIII-2  (PRN 18)    
1 44506U 19056A   20185.59380885 -.00000078  00000-0  00000+0 0  9997
2 44506  55.2462  57.5936 0006077 167.1340  14.3477  2.00558302  6447
